{
  "type": "FeatureCollection",
  "features": [
    {
      "type": "Feature",
      "properties": {
        "norad_id": 40938,
        "name": "BEIDOU-3S IGSO-2S (C56)",
        "group": "gnss",
        "lat": 48.26538034571169,
        "lon": 7.719310655976025,
        "alt_km": 35767.98874255604,
        "timestamp": "2025-12-27T11:23:20.140539+00:00",
        "meta_object_name": "BEIDOU-3S IGSO-2S (C56)",
        "meta_object_id": "2015-053A",
        "meta_epoch": "2025-12-26T16:11:41.602848",
        "meta_mean_motion": 1.00266904,
        "meta_eccentricity": 0.0060693,
        "meta_inclination": 49.4889,
        "meta_ra_of_asc_node": 260.8421,
        "meta_arg_of_pericenter": 188.2714,
        "meta_mean_anomaly": 344.9526,
        "meta_ephemeris_type": 0,
        "meta_classification_type": "U",
        "meta_norad_cat_id": 40938,
        "meta_element_set_no": 999,
        "meta_rev_at_epoch": 3762,
        "meta_bstar": 0,
        "meta_mean_motion_dot": -1.24e-06,
        "meta_mean_motion_ddot": 0,
        "tle_line1": "1 40938U 15053A   25360.67478707 -.00000124  00000+0  00000+0 0  9996",
        "tle_line2": "2 40938  49.4889 260.8421 0060693 188.2714 344.9526  1.00266904 37625"
      },
      "geometry": {
        "type": "Point",
        "coordinates": [
          7.719310655976025,
          48.26538034571169
        ]
      }
    },
    {
      "type": "Feature",
      "properties": {
        "norad_id": 41019,
        "name": "GPS BIIF-11 (PRN 10)",
        "group": "gnss",
        "lat": 27.52451288893893,
        "lon": -162.46097992299872,
        "alt_km": 20143.941919498524,
        "timestamp": "2025-12-27T11:23:20.140551+00:00",
        "meta_object_name": "GPS BIIF-11 (PRN 10)",
        "meta_object_id": "2015-062A",
        "meta_epoch": "2025-12-26T06:30:53.631648",
        "meta_mean_motion": 2.00567029,
        "meta_eccentricity": 0.0111129,
        "meta_inclination": 56.842,
        "meta_ra_of_asc_node": 37.479,
        "meta_arg_of_pericenter": 230.2895,
        "meta_mean_anomaly": 128.7854,
        "meta_ephemeris_type": 0,
        "meta_classification_type": "U",
        "meta_norad_cat_id": 41019,
        "meta_element_set_no": 999,
        "meta_rev_at_epoch": 7436,
        "meta_bstar": 0,
        "meta_mean_motion_dot": -4.9e-07,
        "meta_mean_motion_ddot": 0,
        "tle_line1": "1 41019U 15062A   25360.27145407 -.00000049  00000+0  00000+0 0  9997",
        "tle_line2": "2 41019  56.8420  37.4790 0111129 230.2895 128.7854  2.00567029 74362"
      },
      "geometry": {
        "type": "Point",
        "coordinates": [
          -162.46097992299872,
          27.52451288893893
        ]
      }
    },
    {
      "type": "Feature",
      "properties": {
        "norad_id": 41028,
        "name": "GSAT-15 (GAGAN/PRN 139)",
        "group": "gnss",
        "lat": -0.001300820681896313,
        "lon": 0.5543660435048067,
        "alt_km": 35791.13764638859,
        "timestamp": "2025-12-27T11:23:20.140563+00:00",
        "meta_object_name": "GSAT-15 (GAGAN/PRN 139)",
        "meta_object_id": "2015-065A",
        "meta_epoch": "2025-12-27T03:10:27.175008",
        "meta_mean_motion": 1.00268036,
        "meta_eccentricity": 0.0002543,
        "meta_inclination": 0.0149,
        "meta_ra_of_asc_node": 0.4996,
        "meta_arg_of_pericenter": 248.1885,
        "meta_mean_anomaly": 348.2931,
        "meta_ephemeris_type": 0,
        "meta_classification_type": "U",
        "meta_norad_cat_id": 41028,
        "meta_element_set_no": 999,
        "meta_rev_at_epoch": 3707,
        "meta_bstar": 0,
        "meta_mean_motion_dot": 0,
        "meta_mean_motion_ddot": 0,
        "tle_line1": "1 41028U 15065A   25361.13225897  .00000000  00000+0  00000+0 0  9994",
        "tle_line2": "2 41028   0.0149   0.4996 0002543 248.1885 348.2931  1.00268036 37072"
      },
      "geometry": {
        "type": "Point",
        "coordinates": [
          0.5543660435048067,
          -0.001300820681896313
        ]
      }
    },
    {
      "type": "Feature",
      "properties": {
        "norad_id": 41174,
        "name": "GSAT0209 (GALILEO 12)",
        "group": "gnss",
        "lat": -5.848012313765915,
        "lon": -70.02384967874339,
        "alt_km": 23229.967587643885,
        "timestamp": "2025-12-27T11:23:20.140575+00:00",
        "meta_object_name": "GSAT0209 (GALILEO 12)",
        "meta_object_id": "2015-079A",
        "meta_epoch": "2025-12-21T21:22:17.332896",
        "meta_mean_motion": 1.70474556,
        "meta_eccentricity": 0.00025231,
        "meta_inclination": 55.7178,
        "meta_ra_of_asc_node": 106.13,
        "meta_arg_of_pericenter": 342.7574,
        "meta_mean_anomaly": 17.2091,
        "meta_ephemeris_type": 0,
        "meta_classification_type": "U",
        "meta_norad_cat_id": 41174,
        "meta_element_set_no": 999,
        "meta_rev_at_epoch": 6175,
        "meta_bstar": 0,
        "meta_mean_motion_dot": 5e-08,
        "meta_mean_motion_ddot": 0,
        "tle_line1": "1 41174U 15079A   25355.89047839  .00000005  00000+0  00000+0 0  9990",
        "tle_line2": "2 41174  55.7178 106.1300 0002523 342.7574  17.2091  1.70474556 61755"
      },
      "geometry": {
        "type": "Point",
        "coordinates": [
          -70.02384967874339,
          -5.848012313765915
        ]
      }
    },
    {
      "type": "Feature",
      "properties": {
        "norad_id": 41175,
        "name": "GSAT0208 (GALILEO 11)",
        "group": "gnss",
        "lat": 40.60583091536488,
        "lon": 141.7031664305655,
        "alt_km": 23215.295250016432,
        "timestamp": "2025-12-27T11:23:20.140588+00:00",
        "meta_object_name": "GSAT0208 (GALILEO 11)",
        "meta_object_id": "2015-079B",
        "meta_epoch": "2025-12-26T19:16:48.817056",
        "meta_mean_motion": 1.70474041,
        "meta_eccentricity": 0.00020772,
        "meta_inclination": 55.719,
        "meta_ra_of_asc_node": 105.9921,
        "meta_arg_of_pericenter": 340.7165,
        "meta_mean_anomaly": 19.2705,
        "meta_ephemeris_type": 0,
        "meta_classification_type": "U",
        "meta_norad_cat_id": 41175,
        "meta_element_set_no": 999,
        "meta_rev_at_epoch": 6225,
        "meta_bstar": 0,
        "meta_mean_motion_dot": 1.7e-07,
        "meta_mean_motion_ddot": 0,
        "tle_line1": "1 41175U 15079B   25360.80334279  .00000017  00000+0  00000+0 0  9998",
        "tle_line2": "2 41175  55.7190 105.9921 0002077 340.7165  19.2705  1.70474041 62253"
      },
      "geometry": {
        "type": "Point",
        "coordinates": [
          141.7031664305655,
          40.60583091536488
        ]
      }
    },
    {
      "type": "Feature",
      "properties": {
        "norad_id": 41241,
        "name": "IRNSS-1E",
        "group": "gnss",
        "lat": -21.857556982026065,
        "lon": 23.904796211180383,
        "alt_km": 35840.610448965694,
        "timestamp": "2025-12-27T11:23:20.140599+00:00",
        "meta_object_name": "IRNSS-1E",
        "meta_object_id": "2016-003A",
        "meta_epoch": "2025-12-26T15:54:48.991392",
        "meta_mean_motion": 1.00277951,
        "meta_eccentricity": 0.0020993,
        "meta_inclination": 32.8574,
        "meta_ra_of_asc_node": 62.2508,
        "meta_arg_of_pericenter": 189.6283,
        "meta_mean_anomaly": 193.9579,
        "meta_ephemeris_type": 0,
        "meta_classification_type": "U",
        "meta_norad_cat_id": 41241,
        "meta_element_set_no": 999,
        "meta_rev_at_epoch": 3635,
        "meta_bstar": 0,
        "meta_mean_motion_dot": -2.94e-06,
        "meta_mean_motion_ddot": 0,
        "tle_line1": "1 41241U 16003A   25360.66306703 -.00000294  00000+0  00000+0 0  9993",
        "tle_line2": "2 41241  32.8574  62.2508 0020993 189.6283 193.9579  1.00277951 36358"
      },
      "geometry": {
        "type": "Point",
        "coordinates": [
          23.904796211180383,
          -21.857556982026065
        ]
      }
    },
    {
      "type": "Feature",
      "properties": {
        "norad_id": 41328,
        "name": "GPS BIIF-12 (PRN 32)",
        "group": "gnss",
        "lat": 55.35113383202686,
        "lon": -178.16917899060223,
        "alt_km": 20401.635217869338,
        "timestamp": "2025-12-27T11:23:20.140610+00:00",
        "meta_object_name": "GPS BIIF-12 (PRN 32)",
        "meta_object_id": "2016-007A",
        "meta_epoch": "2025-12-25T20:32:16.174464",
        "meta_mean_motion": 2.00559967,
        "meta_eccentricity": 0.00928247,
        "meta_inclination": 55.4133,
        "meta_ra_of_asc_node": 96.3364,
        "meta_arg_of_pericenter": 243.9276,
        "meta_mean_anomaly": 115.1304,
        "meta_ephemeris_type": 0,
        "meta_classification_type": "U",
        "meta_norad_cat_id": 41328,
        "meta_element_set_no": 999,
        "meta_rev_at_epoch": 7236,
        "meta_bstar": 0,
        "meta_mean_motion_dot": 1.1e-07,
        "meta_mean_motion_ddot": 0,
        "tle_line1": "1 41328U 16007A   25359.85574276  .00000011  00000+0  00000+0 0  9990",
        "tle_line2": "2 41328  55.4133  96.3364 0092824 243.9276 115.1304  2.00559967 72366"
      },
      "geometry": {
        "type": "Point",
        "coordinates": [
          -178.16917899060223,
          55.35113383202686
        ]
      }
    }
  ]
}